INTELSAT 26 (IS-26)     
1 24732U 97007A   21273.43716721 -.00000014  00000-0  00000-0 0  9993
2 24732   9.6990  40.2196 0002789 134.0258  58.6725  1.00272422 55489
GALAXY 25 (G-25)        
1 24812U 97026A   21274.15166184  .00000097  00000-0  00000+0 0  9994
2 24812   3.0486  86.1707 0003705 122.8855 265.4418  1.00403301 89127
INTELSAT 5 (IS-5)       
1 24916U 97046A   21274.50960067  .00000091  00000-0  00000+0 0  9996
2 24916   6.6785  62.7523 0003074 141.8639 212.2992  1.00271606 88373
GALAXY 11 (G-11)        
1 26038U 99071A   21273.47720032 -.00000163  00000-0  00000-0 0  9996
2 26038   2.3644  90.8412 0000831 312.1374  45.1835  1.00272186 79826
INTELSAT 9 (IS-9)       
1 26451U 00043A   21274.39723360 -.00000285  00000-0  00000+0 0  9999
2 26451   6.6639  62.9314 0002861 142.9956 257.4587  1.00271007 77604
INTELSAT 12 (IS-12)     
1 26590U 00068A   21273.65215990  .00000012  00000-0  00000+0 0  9990
2 26590   4.0409  82.0169 0002488  89.5578 137.0862  1.00272340 76549
INTELSAT 1R (IS-1R)     
1 26608U 00072A   21273.54288080 -.00000138  00000-0  00000+0 0  9993
2 26608   3.8094  83.0007 0000758 225.9577  53.0890  1.00272058 76400
INTELSAT 10 (IS-10)     
1 26766U 01019A   21274.46932949  .00000036  00000-0  00000+0 0  9998
2 26766   4.9655  75.4727 0003211 138.2290 143.5007  1.00271109 74688
INTELSAT 901 (IS-901)   
1 26824U 01024A   21274.31577003 -.00000204  00000-0  00000+0 0  9997
2 26824   0.0144 132.4874 0001141  84.1763 239.8103  1.00273298 74344
INTELSAT 902 (IS-902)   
1 26900U 01039A   21274.17827063 -.00000284  00000-0  00000+0 0  9994
2 26900   1.7553  91.7750 0003050 101.3296 191.1280  1.00271820 73529
INTELSAT 904 (IS-904)   
1 27380U 02007A   21274.03243782 -.00000214  00000-0  00000+0 0  9991
2 27380   2.5885  88.6144 0002865 105.3188 158.2500  1.00270965 71838
DIRECTV 5 (TEMPO 1)     
1 27426U 02023A   21274.53126788 -.00000058  00000-0  00000+0 0  9997
2 27426   0.4741  96.0530 0003386 103.8116 251.7706  1.00272288 71064
INTELSAT 905 (IS-905)   
1 27438U 02027A   21274.02132986 -.00000185  00000-0  00000+0 0  9996
2 27438   2.4101  89.3991 0002508 102.0343 161.7574  1.00272271 70720
GALAXY 3C (G-3C)        
1 27445U 02030A   21273.90745279 -.00000154  00000-0  00000+0 0  9995
2 27445   0.0291 277.6579 0001297  57.6894 266.1658  1.00275355 70703
INTELSAT 906 (IS-906)   
1 27513U 02041A   21274.09632802  .00000013  00000-0  00000+0 0  9994
2 27513   1.4214  93.4551 0003253 101.2450 274.1868  1.00271979 69721
GALAXY 12 (G-12)        
1 27715U 03013B   21274.51644993  .00000057  00000-0  00000+0 0  9997
2 27715   2.6245  88.1559 0001841 112.6500 226.6010  1.00271490 67765
GALAXY 23 (G-23)        
1 27854U 03034A   21274.52320662  .00000011  00000-0  00000+0 0  9999
2 27854   0.0396 256.3368 0002978 290.1670 251.3424  1.00271509 71307
GALAXY 13 (HORIZONS 1)  
1 27954U 03044A   21274.53024560  .00000046  00000-0  00000+0 0  9998
2 27954   0.0194 136.3894 0003882  45.4220 252.5586  1.00270810 65918
INTELSAT 10-02          
1 28358U 04022A   21273.63907718 -.00000013  00000-0  00000+0 0  9994
2 28358   0.0120 132.1109 0001135  79.7649  26.8071  1.00272404 63373
XM-3 (RHYTHM)           
1 28626U 05008A   21274.34826069 -.00000208  00000-0  00000+0 0  9991
2 28626   0.0201 214.0045 0000953 244.8129 311.7732  1.00273233 60823
DIRECTV 8               
1 28659U 05019A   21274.04621677 -.00000001  00000-0  00000+0 0  9995
2 28659   0.0123 232.7201 0003034 323.8362  71.0524  1.00272103 59933
GALAXY 28 (G-28)        
1 28702U 05022A   21274.41577073 -.00000188  00000-0  00000+0 0  9995
2 28702   0.0184 189.0896 0000889 340.1914 261.7711  1.00272993 59587
GALAXY 14 (G-14)        
1 28790U 05030A   21274.07650891  .00000154  00000-0  00000+0 0  9995
2 28790   0.6080  94.5138 0002747 111.8662 224.1114  1.00272244 59053
GALAXY 15 (G-15)        
1 28884U 05041A   21274.51303135  .00000077  00000-0  00000+0 0  9990
2 28884   0.0240 108.8923 0001853  82.5421 230.7271  1.00271502 58360
SPACEWAY 2              
1 28903U 05046B   21274.50732289  .00000102  00000-0  00000+0 0  9991
2 28903   1.2974  90.3015 0000495 124.6135 199.2919  1.00272072 58256
GALAXY 16 (G-16)        
1 29236U 06023A   21274.05022881 -.00000129  00000-0  00000+0 0  9997
2 29236   0.0139 188.5659 0002704   7.8848  92.6538  1.00271724 56016
DIRECTV 9S              
1 29494U 06043A   21273.62934556 -.00000115  00000-0  00000+0 0  9993
2 29494   0.0271 233.6189 0002951 318.3566 302.9983  1.00270964 54856
XM-4 (BLUES)            
1 29520U 06049A   21274.52776802 -.00000026  00000-0  00000+0 0  9998
2 29520   0.0460 287.3272 0000277 287.1484 230.7919  1.00274179 54754
GALAXY 17 (G-17)        
1 31307U 07016B   21273.62119747 -.00000176  00000-0  00000+0 0  9994
2 31307   0.0165 254.8547 0003149 302.8307 304.5493  1.00272151 52827
DIRECTV 10              
1 31862U 07032A   21274.33108052 -.00000106  00000-0  00000+0 0  9997
2 31862   0.0084 307.3476 0000134 237.2666 202.0870  1.00271734 52162
SPACEWAY 3              
1 32018U 07036A   21273.62041250 -.00000153  00000-0  00000+0 0  9994
2 32018   0.0222   8.3240 0000145 244.2421 245.4288  1.00271708 51878
INTELSAT 11 (IS-11)     
1 32253U 07044B   21274.06142017 -.00000270  00000-0  00000+0 0  9996
2 32253   0.0120 204.6340 0001689 351.7140 152.8224  1.00272939 51287
HORIZONS 2              
1 32388U 07063B   21274.08688788 -.00000184  00000-0  00000+0 0  9992
2 32388   0.0169 192.8487 0002440  14.3205 279.0031  1.00269011 50632
DIRECTV 11              
1 32729U 08013A   21274.05022881 -.00000128  00000-0  00000+0 0  9998
2 32729   0.0410   0.4303 0000161 227.2580  61.2386  1.00272463 49682
GALAXY 18 (G-18)        
1 32951U 08024A   21273.61182812  .00000023  00000-0  00000+0 0  9992
2 32951   0.0157 246.7964 0002972 302.7849 277.2544  1.00273011 48835
INTELSAT 25 (IS-25)     
1 33153U 08034A   21273.41771757 -.00000225  00000-0  00000-0 0  9994
2 33153   0.0221 233.8466 0002877 312.7902 301.6335  1.00273704 48447
GALAXY 19 (G-19)        
1 33376U 08045A   21274.05066490 -.00000142  00000-0  00000+0 0  9992
2 33376   0.0181 170.1808 0002959  19.9616 101.1295  1.00272137 47582
FM-5                    
1 35493U 09034A   21274.41577073 -.00000203  00000-0  00000+0 0  9995
2 35493   0.0351 307.5790 0000820  68.0065  58.3330  1.00272806 44737
INTELSAT 14 (IS-14)     
1 36097U 09064A   21274.48035382 -.00000276  00000-0  00000+0 0  9998
2 36097   0.0142 241.5126 0002477 317.0551 299.8136  1.00273286 43450
INTELSAT 15 (IS-15)     
1 36106U 09067A   21274.08697509 -.00000187  00000-0  00000+0 0  9994
2 36106   0.0171 168.2103 0002234  25.2952 293.0072  1.00269782 43357
DIRECTV 12              
1 36131U 09075A   21273.62827653 -.00000105  00000-0  00000+0 0  9995
2 36131   0.0123 183.4597 0000109  58.5278 251.0575  1.00269742 43131
INTELSAT 16 (IS-16)     
1 36397U 10006A   21273.48060184 -.00000246  00000-0  00000+0 0  9993
2 36397   0.0185 172.9855 0002074  22.5856 270.6934  1.00271562 42463
XM-5                    
1 37185U 10053A   21274.05304725 -.00000208  00000-0  00000+0 0  9995
2 37185   0.0155 211.1893 0000692  39.6938  53.1438  1.00271901 40196
INTELSAT 17 (IS-17)     
1 37238U 10065B   21274.12741087 -.00000004  00000-0  00000+0 0  9995
2 37238   0.0194 172.3056 0003130  34.5465 275.1042  1.00270494 39670
INTELSAT NEW DAWN       
1 37392U 11016A   21274.03868735  .00000154  00000-0  00000+0 0  9998
2 37392   0.0139 178.2830 0001345   7.9181 230.5441  1.00272729 38276
INTELSAT 18 (IS-18)     
1 37834U 11056A   21273.74696601  .00000051  00000-0  00000+0 0  9997
2 37834   0.0098  31.7798 0001855 160.2985 266.5570  1.00270874 36592
INTELSAT 22 (IS-22)     
1 38098U 12011A   21273.65372983 -.00000061  00000-0  00000+0 0  9998
2 38098   0.0170 232.7294 0003040 322.3964 121.9441  1.00271675 34797
INTELSAT 19 (IS-19)     
1 38356U 12030A   21273.74417502 -.00000058  00000-0  00000+0 0  9999
2 38356   0.0182 167.0326 0003233  30.5137 246.0894  1.00271648 34260
INTELSAT 20 (IS-20)     
1 38740U 12043A   21274.31299318 -.00000027  00000-0  00000+0 0  9993
2 38740   0.0114 173.8024 0002285   8.6141   9.0352  1.00271258 33586
INTELSAT 21 (IS-21)     
1 38749U 12045A   21273.48417778 -.00000287  00000-0  00000+0 0  9991
2 38749   0.0162 250.5276 0002621 307.4674 287.7725  1.00274134 33388
INTELSAT 23 (IS-23)     
1 38867U 12057A   21274.34493653 -.00000287  00000-0  00000+0 0  9997
2 38867   0.0194 231.4043 0001796 318.6522 251.4393  1.00272101 32865
FM-6                    
1 39360U 13058A   21273.61688140 -.00000019  00000-0  00000+0 0  9997
2 39360   0.0419 267.8437 0000362 171.7320  35.9333  1.00273884 29095
INTELSAT 30 (IS-30)     
1 40271U 14062A   21274.12279263 -.00000152  00000-0  00000+0 0  9993
2 40271   0.0122 243.8041 0001664 182.6704 252.7658  1.00266721 25511
DIRECTV 14              
1 40333U 14078B   21273.63055719 -.00000128  00000-0  00000+0 0  9995
2 40333   0.0214 130.8524 0000110 248.4642 118.0480  1.00273104 24991
DIRECTV 15              
1 40663U 15026A   21274.10038133 -.00000107  00000-0  00000+0 0  9996
2 40663   0.0160 124.4449 0000815 274.6326 264.2772  1.00284015 23286
SKY MEXICO-1            
1 40664U 15026B   21273.55185904 -.00000236  00000-0  00000+0 0  9997
2 40664   0.0185 169.2756 0002055  26.8192 293.3150  1.00270979 23285
INTELSAT 34 (IS-34)     
1 40874U 15039A   21273.41292057 -.00000287  00000-0  00000-0 0  9994
2 40874   0.0400 284.6170 0000986  85.4641  92.4686  1.00270510 22373
INTELSAT 31 (IS-31)     
1 41581U 16035A   21273.54845753 -.00000152  00000-0  00000-0 0  9999
2 41581   0.0110 203.5939 0001791   5.9860 262.3347  1.00270381 19357
INTELSAT 36 (IS-36)     
1 41747U 16053A   21273.72333762 -.00000026  00000-0  00000+0 0  9994
2 41747   0.0126 188.1164 0002673 186.4588 324.0014  1.00269448 18716
INTELSAT 33E (IS-33E)   
1 41748U 16053B   21274.42271539  .00000046  00000-0  00000+0 0  9997
2 41748   0.0416   2.3857 0002062 196.7136  23.4663  1.00272976 18978
INTELSAT 32E (IS-32E)   
1 41945U 17007B   21274.48035382 -.00000271  00000-0  00000+0 0  9997
2 41945   0.0239 175.0595 0000102 292.3233  32.7915  1.00270389 17003
INTELSAT 35E (IS-35E)   
1 42818U 17041A   21274.06307733 -.00000240  00000-0  00000+0 0  9997
2 42818   0.0131 200.4672 0001770 355.5344 162.2552  1.00271295 15562
INTELSAT 37E (IS-37E)   
1 42950U 17059A   21273.75519927 -.00000142  00000-0  00000+0 0  9999
2 42950   0.0176 191.1565 0002898   8.2481  64.2023  1.00272809 14791
AZERSPACE 2 (IS-38)     
1 43632U 18074A   21274.48938130  .00000134  00000-0  00000+0 0  9997
2 43632   0.0236 183.0040 0001218  22.8783  25.8566  1.00270787 11218
HORIZONS 3E             
1 43633U 18074B   21273.74478556 -.00000032  00000-0  00000+0 0  9995
2 43633   0.0037  70.7672 0001050 213.8158 162.2740  1.00272676 11076
AT&T T-16               
1 44333U 19034A   21274.53921769 -.00000118  00000-0  00000+0 0  9992
2 44333   0.0185 221.6161 0000709 138.1543 103.9971  1.00275539  8384
INTELSAT 39 (IS-39)     
1 44476U 19049B   21273.70963691  .00000031  00000-0  00000+0 0  9997
2 44476   0.0138 229.2717 0000498 144.0986 313.7324  1.00272860  7895
GALAXY 30               
1 46114U 20056C   21274.04508295  .00000034  00000-0  00000+0 0  9994
2 46114   0.0139 222.4166 0002780 336.8353  61.9942  1.00272594  4153
